OBJECT_NAME,OBJECT_ID,EPOCH,MEAN_MOTION,ECCENTRICITY,INCLINATION,RA_OF_ASC_NODE,ARG_OF_PERICENTER,MEAN_ANOMALY,EPHEMERIS_TYPE,CLASSIFICATION_TYPE,NORAD_CAT_ID,ELEMENT_SET_NO,REV_AT_EPOCH,BSTAR,MEAN_MOTION_DOT,MEAN_MOTION_DDOT
ONEWEB-0050,2020-020AF,2026-06-18T16:28:55.242336,14.90385707,.0002928,88.9297,233.0073,22.8796,337.2563,0,U,45453,999,34060,.17529E-3,.1727E-4,0
ONEWEB-0034,2020-020AG,2026-06-18T19:41:12.045984,13.11414621,.0001824,87.8892,20.7438,85.0089,275.1247,0,U,45454,999,30280,.5584E-3,.211E-5,0
ONEWEB-0060,2020-020AH,2026-06-18T20:26:08.684160,13.11417508,.0001203,87.8888,20.7356,55.0027,305.1213,0,U,45455,999,30276,-.16606E-2,-.576E-5,0
ONEWEB-0086,2020-020AJ,2026-06-18T19:55:26.675904,13.11414837,.0001041,87.8893,20.7350,88.1286,271.9961,0,U,45456,999,30282,-.37883E-3,-.122E-5,0
ONEWEB-0088,2020-020AK,2026-06-18T02:55:06.150144,13.11417250,.0002166,87.8902,20.8489,79.3221,280.8151,0,U,45457,999,30266,.12264E-2,.447E-5,0
ONEWEB-0102,2020-100A,2026-06-18T17:38:18.976704,13.12441613,.0001639,87.8940,350.3672,99.0474,261.0840,0,U,47258,999,26493,.86653E-3,.324E-5,0
ONEWEB-0109,2020-100B,2026-06-18T17:50:30.636960,13.12441227,.0001861,87.8949,350.3489,96.3982,263.7358,0,U,47259,999,26476,-.11476E-3,-.29E-6,0
ONEWEB-0110,2020-100C,2026-06-18T18:29:32.083008,13.12442777,.0001568,87.8950,350.3281,91.2881,268.8428,0,U,47260,999,26493,-.14666E-2,-.515E-5,0
ONEWEB-0111,2020-100D,2026-06-18T11:54:20.282112,13.12441279,.0001765,87.8949,350.4010,88.3781,271.7550,0,U,47261,999,26473,.10844E-2,.403E-5,0
ONEWEB-0114,2020-100E,2026-06-18T18:07:36.276672,13.12433896,.0002128,87.8949,350.3476,95.3393,264.7978,0,U,47262,999,26472,-.29433E-2,-.1046E-4,0
ONEWEB-0117,2020-100F,2026-06-18T12:26:02.658912,13.12442958,.0001778,87.8947,350.3850,91.3434,268.7898,0,U,47263,999,26470,-.61168E-3,-.207E-5,0
ONEWEB-0118,2020-100G,2026-06-18T18:44:11.018976,13.12445002,.0002147,87.8947,350.3357,91.2549,268.8826,0,U,47264,999,26493,.32097E-3,.128E-5,0
ONEWEB-0119,2020-100H,2026-06-18T17:31:00.297984,13.12442988,.0001827,87.8939,350.3623,91.5325,268.6013,0,U,47265,999,26490,.99032E-3,.369E-5,0
ONEWEB-0120,2020-100J,2026-06-18T18:05:20.611392,13.12443441,.0001875,87.8939,350.3586,97.3545,262.7797,0,U,47266,999,26493,-.95012E-3,-.329E-5,0
ONEWEB-0121,2020-100K,2026-06-18T17:48:04.195008,13.12442406,.0001693,87.8950,350.3474,82.3285,277.8035,0,U,47267,999,26484,-.47908E-4,-.5E-7,0
ONEWEB-0122,2020-100L,2026-06-18T17:39:33.037056,13.12442640,.0001739,87.8951,350.3531,96.3433,263.7893,0,U,47268,999,26475,.6408E-3,.243E-5,0
ONEWEB-0123,2020-100M,2026-06-18T17:33:26.186112,13.12443624,.000193,87.8938,350.3609,90.9067,269.2282,0,U,47269,999,26489,.10889E-2,.404E-5,0
ONEWEB-0124,2020-100N,2026-06-18T19:08:34.876032,13.12444706,.0001762,87.8938,350.3509,87.5238,272.6092,0,U,47270,999,26478,.12264E-2,.454E-5,0
ONEWEB-0125,2020-100P,2026-06-18T11:17:43.518048,13.12443596,.0001944,87.8948,350.3995,82.0976,278.0373,0,U,47271,999,26480,-.89098E-3,-.308E-5,0
ONEWEB-0126,2020-100Q,2026-06-18T19:06:21.578112,13.12443464,.0001889,87.8942,350.3503,94.2321,265.9023,0,U,47272,999,26491,.1254E-2,.464E-5,0
ONEWEB-0127,2020-100R,2026-06-18T18:17:20.010624,13.12443940,.0001891,87.8926,350.3558,94.0432,266.0912,0,U,47273,999,26493,-.1963E-2,-.693E-5,0
ONEWEB-0128,2020-100S,2026-06-18T18:49:03.559008,13.12444593,.00015,87.8934,350.3652,89.9399,270.1901,0,U,47274,999,26495,.43522E-3,.169E-5,0
ONEWEB-0129,2020-100T,2026-06-18T18:19:46.936416,13.12443627,.00025,87.8949,350.3435,116.0037,244.1349,0,U,47275,999,26488,-.10449E-2,-.363E-5,0
ONEWEB-0130,2020-100U,2026-06-18T18:58:49.776096,13.12444158,.0001761,87.8947,350.3331,94.2820,265.8510,0,U,47276,999,26485,.75082E-3,.283E-5,0
ONEWEB-0131,2020-100V,2026-06-18T18:53:57.965280,13.12444251,.0001628,87.8935,350.3518,90.3956,269.7359,0,U,47277,999,26489,.10972E-2,.407E-5,0
ONEWEB-0132,2020-100W,2026-06-18T17:45:37.971648,13.12443276,.0001749,87.8940,350.3631,91.3894,268.7435,0,U,47278,999,26478,.28474E-3,.115E-5,0
ONEWEB-0133,2020-100X,2026-06-18T18:09:48.986208,13.12441565,.0001673,87.8952,350.3360,90.5048,269.6273,0,U,47279,999,26494,-.11215E-2,-.391E-5,0
ONEWEB-0134,2020-100Y,2026-06-18T19:15:53.110656,13.12450607,.0001828,87.8954,350.3242,99.5275,260.6060,0,U,47280,999,26492,.4093E-2,.1486E-4,0
ONEWEB-0135,2020-100Z,2026-06-18T18:34:24.655008,13.12444140,.0001568,87.8939,350.3525,97.4690,262.6617,0,U,47281,999,26494,-.10453E-2,-.363E-5,0
ONEWEB-0136,2020-100AA,2026-06-18T19:01:15.369600,13.12445100,.000165,87.8947,350.3301,100.8545,259.2769,0,U,47282,999,26487,.10344E-2,.385E-5,0
ONEWEB-0137,2020-100AB,2026-06-18T18:00:15.660864,13.12441786,.0001973,87.8952,350.3485,89.3967,270.7387,0,U,47283,999,26477,-.5712E-3,-.193E-5,0
ONEWEB-0138,2020-100AC,2026-06-18T17:28:33.754944,13.12443448,.0001765,87.8949,350.3586,98.4232,261.7096,0,U,47284,999,26485,.10801E-2,.401E-5,0
ONEWEB-0139,2020-100AD,2026-06-18T18:27:17.508096,13.12442969,.0001825,87.8947,350.3369,92.7625,267.3712,0,U,47285,999,26493,-.13753E-2,-.482E-5,0
ONEWEB-0140,2020-100AE,2026-06-18T00:53:12.406560,13.12443044,.00016584,87.8949,350.4732,88.2796,271.8522,0,U,47286,999,26480,.1022806E-2,.381E-5,0
ONEWEB-0141,2020-100AF,2026-06-18T18:26:53.553696,13.12443682,.0002143,87.8948,350.3326,89.0933,271.0441,0,U,47287,999,26488,-.13211E-2,-.463E-5,0
ONEWEB-0142,2020-100AG,2026-06-18T18:10:14.822400,13.12442942,.0002176,87.8941,350.3564,97.5709,262.5667,0,U,47288,999,26487,-.12066E-2,-.421E-5,0
ONEWEB-0143,2020-100AH,2026-06-18T18:24:39.256128,13.12443322,.0001824,87.8948,350.3532,90.6245,269.5092,0,U,47289,999,26485,-.15405E-2,-.541E-5,0
ONEWEB-0144,2020-100AJ,2026-06-18T17:43:12.334080,13.12443920,.0001902,87.8952,350.3330,102.8785,257.2556,0,U,47290,999,26477,.44761E-3,.174E-5,0
ONEWEB-0145,2020-100AK,2026-06-18T18:51:29.930112,13.12445293,.0001872,87.8941,350.3512,93.8993,266.2350,0,U,47291,999,26497,.76747E-3,.289E-5,0
ONEWEB-0146,2020-100AL,2026-06-18T18:46:37.384896,13.12445423,.0001649,87.8949,350.3438,80.8468,279.2847,0,U,47292,999,26488,.33662E-3,.134E-5,0
ONEWEB-0147,2020-100AM,2026-06-18T17:57:49.413312,13.12440859,.0001678,87.8950,350.3320,93.8133,266.3187,0,U,47293,999,26477,-.61929E-3,-.21E-5,0
ONEWEB-0115,2021-025A,2026-06-18T18:36:38.951712,13.13470751,.0001794,87.8959,319.9069,95.6921,264.4413,0,U,48042,999,25380,.25116E-3,.104E-5,0
ONEWEB-0152,2021-025B,2026-06-18T18:56:08.835360,13.13470285,.0001716,87.8964,319.9009,94.3094,265.8231,0,U,48043,999,25376,.7364E-3,.282E-5,0
ONEWEB-0153,2021-025C,2026-06-18T16:34:45.003360,13.13471484,.0001907,87.8954,319.9234,98.6234,261.5111,0,U,48044,999,25374,-.24705E-4,.4E-7,0
ONEWEB-0154,2021-025D,2026-06-18T16:29:52.063296,13.13467781,.0001862,87.8954,319.9216,99.7278,260.4062,0,U,48045,999,25370,-.29121E-2,-.1051E-4,0
ONEWEB-0116,2021-025E,2026-06-18T15:36:14.812416,13.13468592,.0001734,87.8964,319.9258,94.7396,265.3931,0,U,48046,999,25384,.59967E-3,.232E-5,0
ONEWEB-0150,2021-025F,2026-06-18T07:43:20.846784,13.13470293,.0002014,87.8962,319.9886,93.8878,266.2481,0,U,48047,999,25369,.75454E-3,.288E-5,0
ONEWEB-0107,2021-025G,2026-06-18T16:54:15.785568,13.13471002,.0002027,87.8964,319.9084,102.0072,258.1284,0,U,48048,999,25372,.70476E-3,.27E-5,0
ONEWEB-0101,2021-025H,2026-06-18T19:40:00.618240,13.13470653,.0001813,87.8954,319.9008,102.1692,257.9641,0,U,48049,999,25371,-.56265E-3,-.193E-5,0
ONEWEB-0113,2021-025J,2026-06-18T16:35:00.374784,13.13894306,.0001854,87.8959,319.8368,93.4355,266.6986,0,U,48050,999,25380,-.17185E-3,-.5E-6,0
ONEWEB-0112,2021-025K,2026-06-18T18:51:16.185600,13.13471546,.0001804,87.8963,319.8902,104.5619,255.5710,0,U,48051,999,25380,.95517E-3,.362E-5,0
ONEWEB-0156,2021-025L,2026-06-18T17:13:45.558624,13.13470335,.0001964,87.8962,319.9137,97.9138,262.2214,0,U,48052,999,25377,.83226E-3,.317E-5,0
ONEWEB-0161,2021-025M,2026-06-18T16:37:11.162784,13.13472053,.0002023,87.8962,319.9201,99.4781,260.6577,0,U,48053,999,25370,.11247E-3,.54E-6,0
ONEWEB-0158,2021-025N,2026-06-18T15:38:41.466912,13.13471462,.0001585,87.8963,319.9252,96.4789,263.6520,0,U,48054,999,25382,.55188E-3,.214E-5,0
ONEWEB-0157,2021-025P,2026-06-18T16:15:15.681312,13.13469963,.0002119,87.8959,319.9259,105.7493,254.3869,0,U,48055,999,25376,-.81557E-3,-.285E-5,0
ONEWEB-0162,2021-025Q,2026-06-18T15:40:55.920864,13.13469730,.000197,87.8960,319.9314,94.2396,265.8959,0,U,48056,999,25373,.41686E-3,.165E-5,0
ONEWEB-0155,2021-025R,2026-06-18T15:50:52.301184,13.13470066,.0001835,87.8961,319.9262,102.7596,257.3738,0,U,48057,999,25387,-.11061E-3,-.28E-6,0
ONEWEB-0149,2021-025S,2026-06-18T16:22:34.072320,13.13471255,.0002036,87.8962,319.9255,93.2390,266.8972,0,U,48058,999,25368,-.37289E-3,-.123E-5,0
ONEWEB-0148,2021-025T,2026-06-18T15:28:56.412768,13.13470220,.0002409,87.8956,319.9397,92.1809,267.9596,0,U,48059,999,25380,.93865E-3,.356E-5,0
ONEWEB-0160,2021-025U,2026-06-18T15:53:18.096864,13.13470922,.0001353,87.8956,319.9322,76.6718,283.4562,0,U,48060,999,25375,-.18792E-3,-.56E-6,0
ONEWEB-0163,2021-025V,2026-06-18T15:31:21.794592,13.13471080,.0002004,87.8964,319.9300,104.1856,255.9496,0,U,48061,999,25387,.79732E-3,.304E-5,0
ONEWEB-0159,2021-025W,2026-06-18T17:08:52.703232,13.13470690,.0001931,87.8966,319.9100,103.6419,256.4925,0,U,48062,999,25380,.62682E-3,.242E-5,0
ONEWEB-0164,2021-025X,2026-06-18T16:42:03.710592,13.13470870,.000179,87.8967,319.9201,96.6244,263.5089,0,U,48063,999,25378,.3515E-3,.141E-5,0
ONEWEB-0167,2021-025Y,2026-06-18T15:32:34.971936,13.13468400,.0001802,87.8955,319.9394,118.3883,241.7428,0,U,48064,999,25376,.77303E-3,.295E-5,0
ONEWEB-0166,2021-025Z,2026-06-18T08:46:43.119840,13.13459332,.0002009,87.8962,319.9667,96.0371,264.0987,0,U,48065,999,25380,-.3204E-2,-.1157E-4,0
ONEWEB-0151,2021-025AA,2026-06-18T08:49:08.447232,13.13470458,.0001769,87.8956,319.9834,100.5157,259.6171,0,U,48066,999,25374,-.79255E-3,-.277E-5,0
